{
  "type": "FeatureCollection",
  "features": [
    {
      "type": "Feature",
      "properties": {
        "norad_id": 22490,
        "name": "SCD 1",
        "group": "resource",
        "lat": -10.861974861118572,
        "lon": 159.7982983271482,
        "alt_km": 721.0252021439401,
        "timestamp": "2025-12-06T18:50:09.827157+00:00",
        "meta_object_name": "SCD 1",
        "meta_object_id": "1993-009B",
        "meta_epoch": "2025-12-06T06:24:53.284032",
        "meta_mean_motion": 14.4599191,
        "meta_eccentricity": 0.00417472,
        "meta_inclination": 24.9708,
        "meta_ra_of_asc_node": 318.6416,
        "meta_arg_of_pericenter": 256.1513,
        "meta_mean_anomaly": 131.0889,
        "meta_ephemeris_type": 0,
        "meta_classification_type": "U",
        "meta_norad_cat_id": 22490,
        "meta_element_set_no": 999,
        "meta_rev_at_epoch": 73316,
        "meta_bstar": 0.00018433233,
        "meta_mean_motion_dot": 8.61e-06,
        "meta_mean_motion_ddot": 0,
        "tle_line1": "1 22490U 93009B   25340.26728338  .00000861  00000+0  18433-3 0  9997",
        "tle_line2": "2 22490  24.9708 318.6416 0041747 256.1513 131.0889 14.45991910733167"
      },
      "geometry": {
        "type": "Point",
        "coordinates": [
          159.7982983271482,
          -10.861974861118572
        ]
      }
    },
    {
      "type": "Feature",
      "properties": {
        "norad_id": 25397,
        "name": "TECHSAT 1B (GO-32)",
        "group": "resource",
        "lat": -69.04129362973217,
        "lon": 119.44386406365635,
        "alt_km": 819.4010472930922,
        "timestamp": "2025-12-06T18:50:09.827187+00:00",
        "meta_object_name": "TECHSAT 1B (GO-32)",
        "meta_object_id": "1998-043D",
        "meta_epoch": "2025-12-05T23:06:59.931360",
        "meta_mean_motion": 14.24374078,
        "meta_eccentricity": 0.00021938,
        "meta_inclination": 98.9913,
        "meta_ra_of_asc_node": 323.0191,
        "meta_arg_of_pericenter": 68.3307,
        "meta_mean_anomaly": 291.8105,
        "meta_ephemeris_type": 0,
        "meta_classification_type": "U",
        "meta_norad_cat_id": 25397,
        "meta_element_set_no": 999,
        "meta_rev_at_epoch": 42382,
        "meta_bstar": 0.00010199191,
        "meta_mean_motion_dot": 1.89e-06,
        "meta_mean_motion_ddot": 0,
        "tle_line1": "1 25397U 98043D   25339.96319365  .00000189  00000+0  10199-3 0  9994",
        "tle_line2": "2 25397  98.9913 323.0191 0002193  68.3307 291.8105 14.24374078423823"
      },
      "geometry": {
        "type": "Point",
        "coordinates": [
          119.44386406365635,
          -69.04129362973217
        ]
      }
    },
    {
      "type": "Feature",
      "properties": {
        "norad_id": 25504,
        "name": "SCD 2",
        "group": "resource",
        "lat": -23.589390504103733,
        "lon": 68.2249590735916,
        "alt_km": 729.3541228385357,
        "timestamp": "2025-12-06T18:50:09.827202+00:00",
        "meta_object_name": "SCD 2",
        "meta_object_id": "1998-060A",
        "meta_epoch": "2025-12-06T06:49:19.147296",
        "meta_mean_motion": 14.45417912,
        "meta_eccentricity": 0.00166061,
        "meta_inclination": 24.9935,
        "meta_ra_of_asc_node": 181.7026,
        "meta_arg_of_pericenter": 244.517,
        "meta_mean_anomaly": 276.7453,
        "meta_ephemeris_type": 0,
        "meta_classification_type": "U",
        "meta_norad_cat_id": 25504,
        "meta_element_set_no": 999,
        "meta_rev_at_epoch": 43238,
        "meta_bstar": 0.00013765331,
        "meta_mean_motion_dot": 6.75e-06,
        "meta_mean_motion_ddot": 0,
        "tle_line1": "1 25504U 98060A   25340.28424939  .00000675  00000+0  13765-3 0  9996",
        "tle_line2": "2 25504  24.9935 181.7026 0016606 244.5170 276.7453 14.45417912432389"
      },
      "geometry": {
        "type": "Point",
        "coordinates": [
          68.2249590735916,
          -23.589390504103733
        ]
      }
    },
    {
      "type": "Feature",
      "properties": {
        "norad_id": 25757,
        "name": "DLR-TUBSAT",
        "group": "resource",
        "lat": -49.75382574018629,
        "lon": 134.74725290841738,
        "alt_km": 715.7447479679586,
        "timestamp": "2025-12-06T18:50:09.827215+00:00",
        "meta_object_name": "DLR-TUBSAT",
        "meta_object_id": "1999-029B",
        "meta_epoch": "2025-12-06T04:33:01.294848",
        "meta_mean_motion": 14.52353701,
        "meta_eccentricity": 0.00135413,
        "meta_inclination": 98.6557,
        "meta_ra_of_asc_node": 324.5014,
        "meta_arg_of_pericenter": 213.3546,
        "meta_mean_anomaly": 146.6796,
        "meta_ephemeris_type": 0,
        "meta_classification_type": "U",
        "meta_norad_cat_id": 25757,
        "meta_element_set_no": 999,
        "meta_rev_at_epoch": 40523,
        "meta_bstar": 7.9285525e-05,
        "meta_mean_motion_dot": 2.75e-06,
        "meta_mean_motion_ddot": 0,
        "tle_line1": "1 25757U 99029B   25340.18959832  .00000275  00000+0  79286-4 0  9993",
        "tle_line2": "2 25757  98.6557 324.5014 0013541 213.3546 146.6796 14.52353701405239"
      },
      "geometry": {
        "type": "Point",
        "coordinates": [
          134.74725290841738,
          -49.75382574018629
        ]
      }
    },
    {
      "type": "Feature",
      "properties": {
        "norad_id": 25994,
        "name": "TERRA",
        "group": "resource",
        "lat": 67.80620803661667,
        "lon": -127.21241672126209,
        "alt_km": 681.0657643224104,
        "timestamp": "2025-12-06T18:50:09.827227+00:00",
        "meta_object_name": "TERRA",
        "meta_object_id": "1999-068A",
        "meta_epoch": "2025-12-06T07:06:33.235200",
        "meta_mean_motion": 14.60941687,
        "meta_eccentricity": 0.00034881,
        "meta_inclination": 97.9757,
        "meta_ra_of_asc_node": 32.2169,
        "meta_arg_of_pericenter": 110.7977,
        "meta_mean_anomaly": 311.6416,
        "meta_ephemeris_type": 0,
        "meta_classification_type": "U",
        "meta_norad_cat_id": 25994,
        "meta_element_set_no": 999,
        "meta_rev_at_epoch": 38144,
        "meta_bstar": 0.0002242901,
        "meta_mean_motion_dot": 1.054e-05,
        "meta_mean_motion_ddot": 0,
        "tle_line1": "1 25994U 99068A   25340.29621800  .00001054  00000+0  22429-3 0  9994",
        "tle_line2": "2 25994  97.9757  32.2169 0003488 110.7977 311.6416 14.60941687381441"
      },
      "geometry": {
        "type": "Point",
        "coordinates": [
          -127.21241672126209,
          67.80620803661667
        ]
      }
    },
    {
      "type": "Feature",
      "properties": {
        "norad_id": 27004,
        "name": "MAROC-TUBSAT",
        "group": "resource",
        "lat": -58.159680336342554,
        "lon": -47.01913073088946,
        "alt_km": 994.3590780060567,
        "timestamp": "2025-12-06T18:50:09.827240+00:00",
        "meta_object_name": "MAROC-TUBSAT",
        "meta_object_id": "2001-056D",
        "meta_epoch": "2025-12-06T06:16:29.634240",
        "meta_mean_motion": 13.70252416,
        "meta_eccentricity": 0.0019093,
        "meta_inclination": 99.7911,
        "meta_ra_of_asc_node": 148.593,
        "meta_arg_of_pericenter": 277.4021,
        "meta_mean_anomaly": 261.763,
        "meta_ephemeris_type": 0,
        "meta_classification_type": "U",
        "meta_norad_cat_id": 27004,
        "meta_element_set_no": 999,
        "meta_rev_at_epoch": 19976,
        "meta_bstar": 3.8705499e-05,
        "meta_mean_motion_dot": -1.3e-07,
        "meta_mean_motion_ddot": 0,
        "tle_line1": "1 27004U 01056D   25340.26145410 -.00000013  00000+0  38705-4 0  9993",
        "tle_line2": "2 27004  99.7911 148.5930 0019093 277.4021 261.7630 13.70252416199764"
      },
      "geometry": {
        "type": "Point",
        "coordinates": [
          -47.01913073088946,
          -58.159680336342554
        ]
      }
    },
    {
      "type": "Feature",
      "properties": {
        "norad_id": 27424,
        "name": "AQUA",
        "group": "resource",
        "lat": -33.04909406962434,
        "lon": -52.91410146603201,
        "alt_km": 694.0557564848468,
        "timestamp": "2025-12-06T18:50:09.827252+00:00",
        "meta_object_name": "AQUA",
        "meta_object_id": "2002-022A",
        "meta_epoch": "2025-12-06T04:15:07.781760",
        "meta_mean_motion": 14.61784704,
        "meta_eccentricity": 8.907e-05,
        "meta_inclination": 98.4028,
        "meta_ra_of_asc_node": 300.9497,
        "meta_arg_of_pericenter": 112.7706,
        "meta_mean_anomaly": 257.994,
        "meta_ephemeris_type": 0,
        "meta_classification_type": "U",
        "meta_norad_cat_id": 27424,
        "meta_element_set_no": 999,
        "meta_rev_at_epoch": 25507,
        "meta_bstar": 0.00045681556,
        "meta_mean_motion_dot": 2.231e-05,
        "meta_mean_motion_ddot": 0,
        "tle_line1": "1 27424U 02022A   25340.17717340  .00002231  00000+0  45682-3 0  9994",
        "tle_line2": "2 27424  98.4028 300.9497 0000890 112.7706 257.9940 14.61784704255072"
      },
      "geometry": {
        "type": "Point",
        "coordinates": [
          -52.91410146603201,
          -33.04909406962434
        ]
      }
    }
  ]
}